[{"OBJECT_NAME":"KUIPER-00196","OBJECT_ID":"2025-301M","EPOCH":"2026-03-05T05:08:52.098432","MEAN_MOTION":15.38609442,"ECCENTRICITY":0.00041486,"INCLINATION":51.87,"RA_OF_ASC_NODE":86.503,"ARG_OF_PERICENTER":4.1982,"MEAN_ANOMALY":355.9039,"EPHEMERIS_TYPE":0,"CLASSIFICATION_TYPE":"U","NORAD_CAT_ID":67144,"ELEMENT_SET_NO":999,"REV_AT_EPOCH":1305,"BSTAR":0.001579145,"MEAN_MOTION_DOT":0.00061276,"MEAN_MOTION_DDOT":0},{"OBJECT_NAME":"KUIPER-00204","OBJECT_ID":"2025-301N","EPOCH":"2026-03-05T01:48:27.552096","MEAN_MOTION":15.25953473,"ECCENTRICITY":0.00027567,"INCLINATION":51.883,"RA_OF_ASC_NODE":92.1795,"ARG_OF_PERICENTER":342.2773,"MEAN_ANOMALY":17.8113,"EPHEMERIS_TYPE":0,"CLASSIFICATION_TYPE":"U","NORAD_CAT_ID":67145,"ELEMENT_SET_NO":999,"REV_AT_EPOCH":1307,"BSTAR":0.00064841152,"MEAN_MOTION_DOT":0.00016577,"MEAN_MOTION_DDOT":0},{"OBJECT_NAME":"KUIPER-00210","OBJECT_ID":"2025-301P","EPOCH":"2026-03-05T06:00:02.999808","MEAN_MOTION":14.84113035,"ECCENTRICITY":0.00110761,"INCLINATION":51.8994,"RA_OF_ASC_NODE":92.8691,"ARG_OF_PERICENTER":60.4216,"MEAN_ANOMALY":171.0913,"EPHEMERIS_TYPE":0,"CLASSIFICATION_TYPE":"U","NORAD_CAT_ID":67146,"ELEMENT_SET_NO":999,"REV_AT_EPOCH":587,"BSTAR":-0.0034948552,"MEAN_MOTION_DOT":-0.00029595,"MEAN_MOTION_DDOT":0},{"OBJECT_NAME":"KUIPER-00221","OBJECT_ID":"2025-301Q","EPOCH":"2026-03-05T02:01:39.805536","MEAN_MOTION":14.7998519,"ECCENTRICITY":6.121e-5,"INCLINATION":51.9008,"RA_OF_ASC_NODE":100.9697,"ARG_OF_PERICENTER":107.2753,"MEAN_ANOMALY":252.8276,"EPHEMERIS_TYPE":0,"CLASSIFICATION_TYPE":"U","NORAD_CAT_ID":67147,"ELEMENT_SET_NO":999,"REV_AT_EPOCH":1284,"BSTAR":0.00067593303,"MEAN_MOTION_DOT":4.942e-5,"MEAN_MOTION_DDOT":0},{"OBJECT_NAME":"KUIPER-00232","OBJECT_ID":"2025-301R","EPOCH":"2026-03-05T06:00:02.999808","MEAN_MOTION":15.15046134,"ECCENTRICITY":0.0003114,"INCLINATION":51.8807,"RA_OF_ASC_NODE":87.2674,"ARG_OF_PERICENTER":135.353,"MEAN_ANOMALY":276.0571,"EPHEMERIS_TYPE":0,"CLASSIFICATION_TYPE":"U","NORAD_CAT_ID":67148,"ELEMENT_SET_NO":999,"REV_AT_EPOCH":527,"BSTAR":-0.00073987412,"MEAN_MOTION_DOT":-0.0001429,"MEAN_MOTION_DDOT":0},{"OBJECT_NAME":"KUIPER-00241","OBJECT_ID":"2025-301S","EPOCH":"2026-03-05T06:00:02.999808","MEAN_MOTION":14.80097731,"ECCENTRICITY":0.0001476,"INCLINATION":51.9012,"RA_OF_ASC_NODE":95.2438,"ARG_OF_PERICENTER":96.4494,"MEAN_ANOMALY":37.6433,"EPHEMERIS_TYPE":0,"CLASSIFICATION_TYPE":"U","NORAD_CAT_ID":67149,"ELEMENT_SET_NO":999,"REV_AT_EPOCH":568,"BSTAR":-0.0035807063,"MEAN_MOTION_DOT":-0.00027514,"MEAN_MOTION_DDOT":0},{"OBJECT_NAME":"KUIPER-00245","OBJECT_ID":"2025-301T","EPOCH":"2026-03-05T01:57:46.878048","MEAN_MOTION":14.79932036,"ECCENTRICITY":5.258e-5,"INCLINATION":51.9025,"RA_OF_ASC_NODE":103.5032,"ARG_OF_PERICENTER":66.5774,"MEAN_ANOMALY":293.5243,"EPHEMERIS_TYPE":0,"CLASSIFICATION_TYPE":"U","NORAD_CAT_ID":67150,"ELEMENT_SET_NO":999,"REV_AT_EPOCH":1280,"BSTAR":-0.00020996179,"MEAN_MOTION_DOT":-1.821e-5,"MEAN_MOTION_DDOT":0},{"OBJECT_NAME":"KUIPER-00246","OBJECT_ID":"2025-301U","EPOCH":"2026-03-05T06:00:02.999808","MEAN_MOTION":15.08036689,"ECCENTRICITY":0.00052482,"INCLINATION":51.9007,"RA_OF_ASC_NODE":88.6831,"ARG_OF_PERICENTER":52.8644,"MEAN_ANOMALY":85.0965,"EPHEMERIS_TYPE":0,"CLASSIFICATION_TYPE":"U","NORAD_CAT_ID":67151,"ELEMENT_SET_NO":999,"REV_AT_EPOCH":585,"BSTAR":-0.079237956,"MEAN_MOTION_DOT":-0.0113793,"MEAN_MOTION_DDOT":0},{"OBJECT_NAME":"KUIPER-00247","OBJECT_ID":"2025-301V","EPOCH":"2026-03-05T06:02:54.007872","MEAN_MOTION":15.36659405,"ECCENTRICITY":0.00143987,"INCLINATION":51.8627,"RA_OF_ASC_NODE":87.4128,"ARG_OF_PERICENTER":42.553,"MEAN_ANOMALY":317.6569,"EPHEMERIS_TYPE":0,"CLASSIFICATION_TYPE":"U","NORAD_CAT_ID":67152,"ELEMENT_SET_NO":999,"REV_AT_EPOCH":1304,"BSTAR":0.0010769468,"MEAN_MOTION_DOT":0.00039093,"MEAN_MOTION_DDOT":0},{"OBJECT_NAME":"KUIPER-00248","OBJECT_ID":"2025-301W","EPOCH":"2026-03-05T05:16:17.925888","MEAN_MOTION":15.37245391,"ECCENTRICITY":0.00111533,"INCLINATION":51.8659,"RA_OF_ASC_NODE":87.237,"ARG_OF_PERICENTER":27.3725,"MEAN_ANOMALY":332.7847,"EPHEMERIS_TYPE":0,"CLASSIFICATION_TYPE":"U","NORAD_CAT_ID":67153,"ELEMENT_SET_NO":999,"REV_AT_EPOCH":1321,"BSTAR":0.0011085246,"MEAN_MOTION_DOT":0.00040981,"MEAN_MOTION_DDOT":0},{"OBJECT_NAME":"KUIPER-00249","OBJECT_ID":"2025-301X","EPOCH":"2026-03-05T06:11:07.359648","MEAN_MOTION":15.37920347,"ECCENTRICITY":0.00104183,"INCLINATION":51.8653,"RA_OF_ASC_NODE":86.7327,"ARG_OF_PERICENTER":32.741,"MEAN_ANOMALY":327.4221,"EPHEMERIS_TYPE":0,"CLASSIFICATION_TYPE":"U","NORAD_CAT_ID":67154,"ELEMENT_SET_NO":999,"REV_AT_EPOCH":1305,"BSTAR":0.0010077457,"MEAN_MOTION_DOT":0.00038025,"MEAN_MOTION_DDOT":0},{"OBJECT_NAME":"KUIPER-00250","OBJECT_ID":"2025-301Y","EPOCH":"2026-03-05T06:00:02.999808","MEAN_MOTION":14.98156954,"ECCENTRICITY":0.0009746,"INCLINATION":51.924,"RA_OF_ASC_NODE":90.0801,"ARG_OF_PERICENTER":38.4165,"MEAN_ANOMALY":135.068,"EPHEMERIS_TYPE":0,"CLASSIFICATION_TYPE":"U","NORAD_CAT_ID":67155,"ELEMENT_SET_NO":999,"REV_AT_EPOCH":585,"BSTAR":-0.013556958,"MEAN_MOTION_DOT":-0.00159276,"MEAN_MOTION_DDOT":0},{"OBJECT_NAME":"KUIPER-00251","OBJECT_ID":"2025-301Z","EPOCH":"2026-03-04T07:11:10.694976","MEAN_MOTION":15.37379811,"ECCENTRICITY":0.00111876,"INCLINATION":51.8649,"RA_OF_ASC_NODE":91.5656,"ARG_OF_PERICENTER":28.0542,"MEAN_ANOMALY":332.1045,"EPHEMERIS_TYPE":0,"CLASSIFICATION_TYPE":"U","NORAD_CAT_ID":67156,"ELEMENT_SET_NO":999,"REV_AT_EPOCH":1309,"BSTAR":0.00072800465,"MEAN_MOTION_DOT":0.00026846,"MEAN_MOTION_DDOT":0},{"OBJECT_NAME":"KUIPER-00252","OBJECT_ID":"2025-301AA","EPOCH":"2026-03-05T05:27:06.276672","MEAN_MOTION":15.37172769,"ECCENTRICITY":0.00123882,"INCLINATION":51.8645,"RA_OF_ASC_NODE":87.2748,"ARG_OF_PERICENTER":37.6693,"MEAN_ANOMALY":322.5159,"EPHEMERIS_TYPE":0,"CLASSIFICATION_TYPE":"U","NORAD_CAT_ID":67157,"ELEMENT_SET_NO":999,"REV_AT_EPOCH":1304,"BSTAR":0.0010339446,"MEAN_MOTION_DOT":0.0003811,"MEAN_MOTION_DDOT":0},{"OBJECT_NAME":"KUIPER-00261","OBJECT_ID":"2025-301AB","EPOCH":"2026-03-05T06:00:02.999808","MEAN_MOTION":14.95133367,"ECCENTRICITY":0.00111587,"INCLINATION":51.8952,"RA_OF_ASC_NODE":90.3565,"ARG_OF_PERICENTER":43.3931,"MEAN_ANOMALY":229.8776,"EPHEMERIS_TYPE":0,"CLASSIFICATION_TYPE":"U","NORAD_CAT_ID":67158,"ELEMENT_SET_NO":999,"REV_AT_EPOCH":526,"BSTAR":-0.0018110582,"MEAN_MOTION_DOT":-0.00020305,"MEAN_MOTION_DDOT":0},{"OBJECT_NAME":"KUIPER-00265","OBJECT_ID":"2025-301AC","EPOCH":"2026-03-05T01:53:55.300128","MEAN_MOTION":14.79925249,"ECCENTRICITY":8.523e-5,"INCLINATION":51.9021,"RA_OF_ASC_NODE":105.999,"ARG_OF_PERICENTER":67.8453,"MEAN_ANOMALY":292.26,"EPHEMERIS_TYPE":0,"CLASSIFICATION_TYPE":"U","NORAD_CAT_ID":67159,"ELEMENT_SET_NO":999,"REV_AT_EPOCH":1280,"BSTAR":0.00033477435,"MEAN_MOTION_DOT":2.331e-5,"MEAN_MOTION_DDOT":0}]
