KUIPER-00196            
1 67144U 25301M   26064.21449188  .00061276  00000+0  15791-2 0  9994
2 67144  51.8700  86.5030 0004148   4.1982 355.9039 15.38609442 13053
KUIPER-00204            
1 67145U 25301N   26064.07531889  .00016577  00000+0  64841-3 0  9994
2 67145  51.8830  92.1795 0002756 342.2773  17.8113 15.25953473 13077
KUIPER-00210            
1 67146U 25301P   26064.25003472 -.00029595  00000+0 -34949-2 0  9998
2 67146  51.8994  92.8691 0011076  60.4216 171.0913 14.84113035  5873
KUIPER-00221            
1 67147U 25301Q   26064.08448849  .00004942  00000+0  67593-3 0  9990
2 67147  51.9008 100.9697 0000612 107.2753 252.8276 14.79985190 12846
KUIPER-00232            
1 67148U 25301R   26064.25003472 -.00014290  00000+0 -73987-3 0  9992
2 67148  51.8807  87.2674 0003114 135.3530 276.0571 15.15046134  5272
KUIPER-00241            
1 67149U 25301S   26064.25003472 -.00027514  00000+0 -35807-2 0  9994
2 67149  51.9012  95.2438 0001476  96.4494  37.6433 14.80097731  5687
KUIPER-00245            
1 67150U 25301T   26064.08179257 -.00001821  00000+0 -20996-3 0  9999
2 67150  51.9025 103.5032 0000525  66.5774 293.5243 14.79932036 12807
KUIPER-00246            
1 67151U 25301U   26064.25003472 -.01137930  00000+0 -79238-1 0  9997
2 67151  51.9007  88.6831 0005248  52.8644  85.0965 15.08036689  5853
KUIPER-00247            
1 67152U 25301V   26064.25201398  .00039093  00000+0  10769-2 0  9998
2 67152  51.8627  87.4128 0014398  42.5530 317.6569 15.36659405 13045
KUIPER-00248            
1 67153U 25301W   26064.21965192  .00040981  00000+0  11085-2 0  9994
2 67153  51.8659  87.2370 0011153  27.3725 332.7847 15.37245391 13213
KUIPER-00249            
1 67154U 25301X   26064.25772407  .00038025  00000+0  10077-2 0  9990
2 67154  51.8653  86.7327 0010418  32.7410 327.4221 15.37920347 13058
KUIPER-00250            
1 67155U 25301Y   26064.25003472 -.00159276  00000+0 -13557-1 0  9999
2 67155  51.9240  90.0801 0009746  38.4165 135.0680 14.98156954  5851
KUIPER-00251            
1 67156U 25301Z   26063.29942934  .00026846  00000+0  72800-3 0  9990
2 67156  51.8649  91.5656 0011187  28.0542 332.1045 15.37379811 13097
KUIPER-00252            
1 67157U 25301AA  26064.22715598  .00038110  00000+0  10339-2 0  9994
2 67157  51.8645  87.2748 0012388  37.6693 322.5159 15.37172769 13042
KUIPER-00261            
1 67158U 25301AB  26064.25003472 -.00020305  00000+0 -18111-2 0  9994
2 67158  51.8952  90.3565 0011158  43.3931 229.8776 14.95133367  5262
KUIPER-00265            
1 67159U 25301AC  26064.07911227  .00002331  00000+0  33477-3 0  9991
2 67159  51.9021 105.9990 0000852  67.8453 292.2600 14.79925249 12803
